SL-3 R/B                
1 13403U 82079B   25360.93162811  .00007850  00000+0  32212-3 0  9996
2 13403  81.1469 278.9315 0026847  53.6756 306.6949 15.23756099366612
SL-14 R/B               
1 13553U 82092B   25360.96221900  .00000556  00000+0  59773-4 0  9993
2 13553  82.5670 209.4105 0020319 178.3152 305.6430 14.86569202318129
SL-3 R/B                
1 13819U 83010B   25360.70883134  .00014959  00000+0  32754-3 0  9995
2 13819  81.1042  91.5636 0016487 301.4102  58.5528 15.43841024346678
SL-3 R/B                
1 14208U 83075B   25360.92150815  .00012424  00000+0  34857-3 0  9997
2 14208  97.6115 357.8838 0024160 126.6378 233.7092 15.36424390318975
COSMOS 1536             
1 14699U 84013A   25360.93600152  .00006894  00000+0  29378-3 0  9995
2 14699  82.5449 180.0833 0014662 173.5335 186.6094 15.22682214261547
SL-14 R/B               
1 14820U 84027B   25360.89933985  .00000646  00000+0  71270-4 0  9992
2 14820  82.5423 313.2773 0017058 210.1938 149.8297 14.85889700236823
SL-8 R/B                
1 15483U 85006B   25360.60927152  .00000287  00000+0  10406-3 0  9998
2 15483  74.0459  35.6168 0019302 325.0560 153.1291 14.37729464143521
SL-12 R/B(2)            
1 15772U 85042D   25360.94615231  .00000078  00000+0  56808-4 0  9993
2 15772  71.1067 241.4081 0037228 240.6379 129.8533 14.21956100104059
SL-14 R/B               
1 15945U 85069B   25360.77164861  .00000574  00000+0  62136-4 0  9995
2 15945  82.5273  93.5121 0020285  75.4236 284.9228 14.86340217162008
SL-16 R/B               
1 16182U 85097B   25360.97497322 -.00000194  00000+0 -73405-4 0  9994
2 16182  71.0035 293.6341 0007592 348.7987  83.4907 14.16587005 76936
SL-14 R/B               
1 16496U 86006B   25360.90155395  .00000731  00000+0  74958-4 0  9996
2 16496  82.5273 328.2254 0077413 152.8872 207.6422 14.86689441138394
COSMOS 1743             
1 16719U 86034A   25360.44746808  .00031488  00000+0  50426-3 0  9995
2 16719  82.5347 150.3458 0005043 196.5289 163.5800 15.52939330168865
