CCSDS_OMM_VERS = 2.0
CREATION_DATE  = 
ORIGINATOR     = 

OBJECT_NAME    = SL-3 R/B
OBJECT_ID      = 1982-079B
CENTER_NAME    = EARTH
REF_FRAME      = TEME
TIME_SYSTEM    = UTC
MEAN_ELEMENT_THEORY = SGP/SGP4

EPOCH          = 2025-12-26T22:21:32.668704
MEAN_MOTION    = 15.23756099
ECCENTRICITY   = .00268479
INCLINATION    = 81.1469
RA_OF_ASC_NODE = 278.9315
ARG_OF_PERICENTER = 53.6756
MEAN_ANOMALY   = 306.6949

EPHEMERIS_TYPE = 0
CLASSIFICATION_TYPE = U
NORAD_CAT_ID   = 13403
ELEMENT_SET_NO = 999
REV_AT_EPOCH   = 36661
BSTAR          = .32211822E-3
MEAN_MOTION_DOT = .785E-4
MEAN_MOTION_DDOT = 0

CCSDS_OMM_VERS = 2.0
CREATION_DATE  = 
ORIGINATOR     = 

OBJECT_NAME    = SL-14 R/B
OBJECT_ID      = 1982-092B
CENTER_NAME    = EARTH
REF_FRAME      = TEME
TIME_SYSTEM    = UTC
MEAN_ELEMENT_THEORY = SGP/SGP4

EPOCH          = 2025-12-26T23:05:35.721600
MEAN_MOTION    = 14.86569202
ECCENTRICITY   = .00203198
INCLINATION    = 82.5670
RA_OF_ASC_NODE = 209.4105
ARG_OF_PERICENTER = 178.3152
MEAN_ANOMALY   = 305.6430

EPHEMERIS_TYPE = 0
CLASSIFICATION_TYPE = U
NORAD_CAT_ID   = 13553
ELEMENT_SET_NO = 999
REV_AT_EPOCH   = 31812
BSTAR          = .5977296E-4
MEAN_MOTION_DOT = .556E-5
MEAN_MOTION_DDOT = 0

CCSDS_OMM_VERS = 2.0
CREATION_DATE  = 
ORIGINATOR     = 

OBJECT_NAME    = SL-3 R/B
OBJECT_ID      = 1983-010B
CENTER_NAME    = EARTH
REF_FRAME      = TEME
TIME_SYSTEM    = UTC
MEAN_ELEMENT_THEORY = SGP/SGP4

EPOCH          = 2025-12-26T17:00:43.027776
MEAN_MOTION    = 15.43841024
ECCENTRICITY   = .00164875
INCLINATION    = 81.1042
RA_OF_ASC_NODE = 91.5636
ARG_OF_PERICENTER = 301.4102
MEAN_ANOMALY   = 58.5528

EPHEMERIS_TYPE = 0
CLASSIFICATION_TYPE = U
NORAD_CAT_ID   = 13819
ELEMENT_SET_NO = 999
REV_AT_EPOCH   = 34667
BSTAR          = .32754236E-3
MEAN_MOTION_DOT = .14959E-3
MEAN_MOTION_DDOT = 0

CCSDS_OMM_VERS = 2.0
CREATION_DATE  = 
ORIGINATOR     = 

OBJECT_NAME    = SL-3 R/B
OBJECT_ID      = 1983-075B
CENTER_NAME    = EARTH
REF_FRAME      = TEME
TIME_SYSTEM    = UTC
MEAN_ELEMENT_THEORY = SGP/SGP4

EPOCH          = 2025-12-26T22:06:58.304160
MEAN_MOTION    = 15.36424390
ECCENTRICITY   = .00241603
INCLINATION    = 97.6115
RA_OF_ASC_NODE = 357.8838
ARG_OF_PERICENTER = 126.6378
MEAN_ANOMALY   = 233.7092

EPHEMERIS_TYPE = 0
CLASSIFICATION_TYPE = U
NORAD_CAT_ID   = 14208
ELEMENT_SET_NO = 999
REV_AT_EPOCH   = 31897
BSTAR          = .34856959E-3
MEAN_MOTION_DOT = .12424E-3
MEAN_MOTION_DDOT = 0

CCSDS_OMM_VERS = 2.0
CREATION_DATE  = 
ORIGINATOR     = 

OBJECT_NAME    = COSMOS 1536
OBJECT_ID      = 1984-013A
CENTER_NAME    = EARTH
REF_FRAME      = TEME
TIME_SYSTEM    = UTC
MEAN_ELEMENT_THEORY = SGP/SGP4

EPOCH          = 2025-12-26T22:27:50.531328
MEAN_MOTION    = 15.22682214
ECCENTRICITY   = .00146621
INCLINATION    = 82.5449
RA_OF_ASC_NODE = 180.0833
ARG_OF_PERICENTER = 173.5335
MEAN_ANOMALY   = 186.6094

EPHEMERIS_TYPE = 0
CLASSIFICATION_TYPE = U
NORAD_CAT_ID   = 14699
ELEMENT_SET_NO = 999
REV_AT_EPOCH   = 26154
BSTAR          = .29378085E-3
MEAN_MOTION_DOT = .6894E-4
MEAN_MOTION_DDOT = 0

CCSDS_OMM_VERS = 2.0
CREATION_DATE  = 
ORIGINATOR     = 

OBJECT_NAME    = SL-14 R/B
OBJECT_ID      = 1984-027B
CENTER_NAME    = EARTH
REF_FRAME      = TEME
TIME_SYSTEM    = UTC
MEAN_ELEMENT_THEORY = SGP/SGP4

EPOCH          = 2025-12-26T21:35:02.963040
MEAN_MOTION    = 14.85889700
ECCENTRICITY   = .00170583
INCLINATION    = 82.5423
RA_OF_ASC_NODE = 313.2773
ARG_OF_PERICENTER = 210.1938
MEAN_ANOMALY   = 149.8297

EPHEMERIS_TYPE = 0
CLASSIFICATION_TYPE = U
NORAD_CAT_ID   = 14820
ELEMENT_SET_NO = 999
REV_AT_EPOCH   = 23682
BSTAR          = .71270372E-4
MEAN_MOTION_DOT = .646E-5
MEAN_MOTION_DDOT = 0

CCSDS_OMM_VERS = 2.0
CREATION_DATE  = 
ORIGINATOR     = 

OBJECT_NAME    = SL-8 R/B
OBJECT_ID      = 1985-006B
CENTER_NAME    = EARTH
REF_FRAME      = TEME
TIME_SYSTEM    = UTC
MEAN_ELEMENT_THEORY = SGP/SGP4

EPOCH          = 2025-12-26T14:37:21.059328
MEAN_MOTION    = 14.37729464
ECCENTRICITY   = .0019302
INCLINATION    = 74.0459
RA_OF_ASC_NODE = 35.6168
ARG_OF_PERICENTER = 325.0560
MEAN_ANOMALY   = 153.1291

EPHEMERIS_TYPE = 0
CLASSIFICATION_TYPE = U
NORAD_CAT_ID   = 15483
ELEMENT_SET_NO = 999
REV_AT_EPOCH   = 14352
BSTAR          = .10406E-3
MEAN_MOTION_DOT = .287E-5
MEAN_MOTION_DDOT = 0

CCSDS_OMM_VERS = 2.0
CREATION_DATE  = 
ORIGINATOR     = 

OBJECT_NAME    = SL-12 R/B(2)
OBJECT_ID      = 1985-042D
CENTER_NAME    = EARTH
REF_FRAME      = TEME
TIME_SYSTEM    = UTC
MEAN_ELEMENT_THEORY = SGP/SGP4

EPOCH          = 2025-12-26T22:42:27.559584
MEAN_MOTION    = 14.21956100
ECCENTRICITY   = .00372285
INCLINATION    = 71.1067
RA_OF_ASC_NODE = 241.4081
ARG_OF_PERICENTER = 240.6379
MEAN_ANOMALY   = 129.8533

EPHEMERIS_TYPE = 0
CLASSIFICATION_TYPE = U
NORAD_CAT_ID   = 15772
ELEMENT_SET_NO = 999
REV_AT_EPOCH   = 10405
BSTAR          = .56807975E-4
MEAN_MOTION_DOT = .78E-6
MEAN_MOTION_DDOT = 0

CCSDS_OMM_VERS = 2.0
CREATION_DATE  = 
ORIGINATOR     = 

OBJECT_NAME    = SL-14 R/B
OBJECT_ID      = 1985-069B
CENTER_NAME    = EARTH
REF_FRAME      = TEME
TIME_SYSTEM    = UTC
MEAN_ELEMENT_THEORY = SGP/SGP4

EPOCH          = 2025-12-26T18:31:10.439904
MEAN_MOTION    = 14.86340217
ECCENTRICITY   = .00202857
INCLINATION    = 82.5273
RA_OF_ASC_NODE = 93.5121
ARG_OF_PERICENTER = 75.4236
MEAN_ANOMALY   = 284.9228

EPHEMERIS_TYPE = 0
CLASSIFICATION_TYPE = U
NORAD_CAT_ID   = 15945
ELEMENT_SET_NO = 999
REV_AT_EPOCH   = 16200
BSTAR          = .62136302E-4
MEAN_MOTION_DOT = .574E-5
MEAN_MOTION_DDOT = 0

CCSDS_OMM_VERS = 2.0
CREATION_DATE  = 
ORIGINATOR     = 

OBJECT_NAME    = SL-16 R/B
OBJECT_ID      = 1985-097B
CENTER_NAME    = EARTH
REF_FRAME      = TEME
TIME_SYSTEM    = UTC
MEAN_ELEMENT_THEORY = SGP/SGP4

EPOCH          = 2025-12-26T23:23:57.686208
MEAN_MOTION    = 14.16587005
ECCENTRICITY   = .00075927
INCLINATION    = 71.0035
RA_OF_ASC_NODE = 293.6341
ARG_OF_PERICENTER = 348.7987
MEAN_ANOMALY   = 83.4907

EPHEMERIS_TYPE = 0
CLASSIFICATION_TYPE = U
NORAD_CAT_ID   = 16182
ELEMENT_SET_NO = 999
REV_AT_EPOCH   = 7693
BSTAR          = -.7340471E-4
MEAN_MOTION_DOT = -.194E-5
MEAN_MOTION_DDOT = 0

CCSDS_OMM_VERS = 2.0
CREATION_DATE  = 
ORIGINATOR     = 

OBJECT_NAME    = SL-14 R/B
OBJECT_ID      = 1986-006B
CENTER_NAME    = EARTH
REF_FRAME      = TEME
TIME_SYSTEM    = UTC
MEAN_ELEMENT_THEORY = SGP/SGP4

EPOCH          = 2025-12-26T21:38:14.261280
MEAN_MOTION    = 14.86689441
ECCENTRICITY   = .00774135
INCLINATION    = 82.5273
RA_OF_ASC_NODE = 328.2254
ARG_OF_PERICENTER = 152.8872
MEAN_ANOMALY   = 207.6422

EPHEMERIS_TYPE = 0
CLASSIFICATION_TYPE = U
NORAD_CAT_ID   = 16496
ELEMENT_SET_NO = 999
REV_AT_EPOCH   = 13839
BSTAR          = .7495772E-4
MEAN_MOTION_DOT = .731E-5
MEAN_MOTION_DDOT = 0

CCSDS_OMM_VERS = 2.0
CREATION_DATE  = 
ORIGINATOR     = 

OBJECT_NAME    = COSMOS 1743
OBJECT_ID      = 1986-034A
CENTER_NAME    = EARTH
REF_FRAME      = TEME
TIME_SYSTEM    = UTC
MEAN_ELEMENT_THEORY = SGP/SGP4

EPOCH          = 2025-12-26T10:44:21.242112
MEAN_MOTION    = 15.52939330
ECCENTRICITY   = .0005043
INCLINATION    = 82.5347
RA_OF_ASC_NODE = 150.3458
ARG_OF_PERICENTER = 196.5289
MEAN_ANOMALY   = 163.5800

EPHEMERIS_TYPE = 0
CLASSIFICATION_TYPE = U
NORAD_CAT_ID   = 16719
ELEMENT_SET_NO = 999
REV_AT_EPOCH   = 16886
BSTAR          = .50426E-3
MEAN_MOTION_DOT = .31488E-3
MEAN_MOTION_DDOT = 0

